SATGUS                  
1 62713U 25009DJ  26068.70670884  .00009370  00000+0  76063-3 0  9990
2 62713  97.7097 150.9679 0005670  96.3538 263.8332 14.99840473 62643
STARLINK-34473          
1 64354U 25126L   26068.29786687  .00001829  00000+0  16105-3 0  9998
2 64354  70.0032  35.4295 0002835 269.1154  90.9680 14.98332341 40622
